FENGYUN 2F              
1 38049U 12002A   22361.01218421 -.00000356  00000+0  00000+0 0  9995
2 38049   4.2638  78.1920 0000944 284.1172 209.1816  1.00283685 40170
METEOSAT-10 (MSG-3)     
1 38552U 12035B   22360.86646617  .00000064  00000+0  00000+0 0  9999
2 38552   1.8425  50.4606 0001029 179.2502 187.0163  1.00271845 38144
METOP-B                 
1 38771U 12049A   22361.13269914  .00000120  00000+0  74807-4 0  9993
2 38771  98.7052  58.1705 0001196 128.8912 260.6561 14.21488964533108
FENGYUN 3C              
1 39260U 13052A   22361.25399260  .00000095  00000+0  69072-4 0  9992
2 39260  98.4393  19.4618 0012212  79.7926 280.4630 14.15970280479207
METEOR-M 2              
1 40069U 14037A   22361.29290870  .00000040  00000+0  37551-4 0  9993
2 40069  98.4256  10.2411 0006667 116.6980 243.4884 14.20731721439243
HIMAWARI-8              
1 40267U 14060A   22360.94624236 -.00000272  00000+0  00000+0 0  9999
2 40267   0.0164 187.2015 0001042 108.4291 281.0937  1.00270545 30140
FENGYUN 2G              
1 40367U 14090A   22360.91410344 -.00000300  00000+0  00000+0 0  9995
2 40367   2.4185  87.5100 0000513 258.5426 177.6761  1.00283186 29289
METEOSAT-11 (MSG-4)     
1 40732U 15034A   22360.87202321  .00000000  00000+0  00000+0 0  9995
2 40732   0.4687 357.5229 0000500  84.8424 326.9739  1.00274397 27305
ELEKTRO-L 2             
1 41105U 15074A   22360.41324140 -.00000113  00000+0  00000+0 0  9994
2 41105   3.4693  85.8744 0002547 157.4979 345.8389  1.00271663 25793
HIMAWARI-9              
1 41836U 16064A   22360.82896476 -.00000272  00000+0  00000+0 0  9992
2 41836   0.0398 173.6288 0000918 136.1626 224.6940  1.00271459 22473
GOES 16                 
1 41866U 16071A   22360.25765184 -.00000243  00000+0  00000+0 0  9999
2 41866   0.0742 248.3613 0000485  65.5277 158.4079  1.00271884 22397
FENGYUN 4A              
1 41882U 16077A   22361.20873265 -.00000326  00000+0  00000+0 0  9991
2 41882   0.0299   4.7833 0005847  42.5710 228.0465  1.00266704 22268
CYGFM05                 
1 41884U 16078A   22360.56075276  .00003924  00000+0  19166-3 0  9991
2 41884  34.9566  84.3617 0014273  11.1628 348.9399 15.17631129334073
CYGFM04                 
1 41885U 16078B   22360.54390395  .00003680  00000+0  17708-3 0  9991
2 41885  34.9500  72.5993 0012493  30.0263 330.1163 15.18189027334028
CYGFM02                 
1 41886U 16078C   22360.59556896  .00004019  00000+0  19298-3 0  9990
2 41886  34.9590  74.5480 0013261  24.2709 335.8626 15.18230688334111
CYGFM01                 
1 41887U 16078D   22360.65342473  .00003536  00000+0  17389-3 0  9994
2 41887  34.9532  86.4896 0014700  11.1260 348.9775 15.17428361333932
CYGFM08                 
1 41888U 16078E   22360.64284697  .00003616  00000+0  17531-3 0  9995
2 41888  34.9502  78.2786 0013760  24.2849 335.8509 15.17926017334077
CYGFM07                 
1 41890U 16078G   22360.56701472  .00003742  00000+0  18015-3 0  9992
2 41890  34.9522  72.2438 0012036  28.4112 331.7255 15.18172599334032
CYGFM03                 
1 41891U 16078H   22360.56554139  .00003630  00000+0  17483-3 0  9993
2 41891  34.9554  72.7711 0011576  25.9462 334.1829 15.18175640334028
FENGYUN 3D              
1 43010U 17072A   22361.17638155  .00000079  00000+0  59195-4 0  9993
2 43010  98.8400 305.0085 0002436  80.6588 279.4866 14.19121684265103
NOAA 20                 
1 43013U 17073A   22361.20983125  .00000086  00000+0  61388-4 0  9996
2 43013  98.7370 296.8969 0000870 116.6632 243.4633 14.19538891264574
GOES 17                 
1 43226U 18022A   22360.74726050  .00000102  00000+0  00000+0 0  9995
2 43226   0.0120 117.0017 0000216 160.3300 309.5564  1.00271237 17712
FENGYUN 2H              
1 43491U 18050A   22361.00568899 -.00000126  00000+0  00000+0 0  9992
2 43491   1.6371  93.7476 0002420  71.5095  11.4254  1.00274186 16791
METOP-C                 
1 43689U 18087A   22361.02273493  .00000121  00000+0  75541-4 0  9997
2 43689  98.7097  58.1115 0003118 181.9139 178.2026 14.21494796214660
GEO-KOMPSAT-2A          
1 43823U 18100A   22361.00078073 -.00000341  00000+0  00000+0 0  9996
2 43823   0.0526 127.0706 0000416 314.7838 142.1344  1.00269278 14945
METEOR-M2 2             
1 44387U 19038A   22361.20589545  .00000036  00000+0  35147-4 0  9991
2 44387  98.7509 320.6934 0002365  79.8277 280.3169 14.23736702180833
FENGYUN 3E              
1 49008U 21062A   22361.26220714  .00000032  00000+0  35570-4 0  9998
2 49008  98.7171   0.2367 0002412 128.5012 231.6383 14.19750465 76676
GOES 18                 
1 51850U 22021A   22359.74307823  .00000103  00000+0  00000+0 0  9993
2 51850   0.0222 166.8760 0000929  88.2291 329.7019  1.00272153  3051
NOAA 21 (JPSS-2)        
1 54234U 22150A   22361.08673737  .00000097  00000+0  66762-4 0  9999
2 54234  98.7010 296.8845 0001096  86.2132 273.9170 14.19548880  6637
METEOSAT-12             
1 54743U 22170C   22353.31524981 -.00000002  00000+0  00000+0 0  9994
2 54743   5.5504 217.8990 7131836 181.4542 110.3708  2.25104636   115
2022-160A               
1 54372U 22160A   22361.13822712  .00013050  00000+0  55019-3 0  9993
2 54372  34.9997  41.6078 0006047 150.3754 241.2210 15.22497609  4520
2022-160B               
1 54373U 22160B   22361.25933840  .00021074  00000+0  83838-3 0  9997
2 54373  35.0011  40.5700 0008383 168.4706 273.1523 15.24359315  4548
2022-160C               
1 54374U 22160C   22361.21241109  .00008999  00000+0  37885-3 0  9996
2 54374  35.0001  41.1816 0004845 143.7690 279.4817 15.22613282  4493
2022-160D               
1 54375U 22160D   22361.07846502  .00023592  00000+0  92693-3 0  9993
2 54375  35.0007  41.6133 0008466 173.5652  29.5506 15.24756703  4519
2022-160E               
1 54376U 22160E   22361.14162914  .00013186  00000+0  55396-3 0  9997
2 54376  35.0003  41.6385 0007355 165.0857 225.8344 15.22608980  4527
COSMOS 2564 [GLONASS-M] 
1 54377U 22161A   22360.60242870  .00000044  00000+0  00000+0 0  9996
2 54377  64.7749 234.9911 0006978 216.8207 326.6855  2.13102287   595
FREGAT R/B              
1 54378U 22161B   22332.88538517  .00000006  00000+0  00000+0 0  9990
2 54378  64.7543 235.8312 0069964  61.3586  78.3433  2.10629160    00
SHENZHOU-15             
1 54379U 22162A   22360.38949704  .00016622  00000+0  20431-3 0  9997
2 54379  41.4751 128.8868 0004948 220.3876 190.8665 15.59881752 94814
COSMOS 2565             
1 54381U 22163A   22361.23169237 -.00000099  00000+0 -17065-4 0  9994
2 54381  67.1559 309.0210 0006793 264.8659  95.1631 13.96673726  3701
SL-4 R/B                
1 54382U 22163B   22360.85303080  .00138816  81768-5  68061-3 0  9992
2 54382  67.1331 298.3823 0442319  68.2230 296.5365 15.08438270  3911
2022-163C               
1 54383U 22163C   22361.22308223  .00000003  00000+0  56145-4 0  9990
2 54383  67.1427 308.9693 0011697 311.9562  48.0525 13.97327256  3395
1998-067UL              
1 54534U 98067UL  22361.00181355  .00050379  00000+0  80732-3 0  9994
2 54534  51.6414 101.1346 0004752 221.0736 138.9897 15.52574369  3880
1998-067UM              
1 54535U 98067UM  22361.20757199  .00052850  00000+0  83649-3 0  9998
2 54535  51.6421 100.0820 0004600 223.7571 218.8112 15.52898430  3912
1998-067UN              
1 54536U 98067UN  22361.21099288  .00040880  00000+0  66124-3 0  9997
2 54536  51.6435 100.1020 0005462 217.4541 225.7466 15.52404220  3879
1998-067UP              
1 54537U 98067UP  22361.03187431  .00045890  00000+0  73499-3 0  9995
2 54537  51.6427 100.9705 0005145 223.6238 308.6052 15.52628260  3884
2022-164A               
1 54588U 22164A   22361.25216489  .00000752  00000+0  22984-3 0  9997
2 54588  98.3553  28.2920 0009019 213.2148 146.8478 14.44551379  2922
KZ-11 R/B               
1 54589U 22164B   22360.80538823  .00016927  22505-5  19095-3 0  9997
2 54589  98.3686  29.9667 0379069  39.1623 323.6394 15.08126454  2985
2022-165A               
1 54640U 22165A   22361.05549425  .00000506  00000+0  12056-3 0  9990
2 54640  98.1185 299.1420 0001046  93.4472 266.6843 14.57770037  2671
2022-165B               
1 54641U 22165B   22361.25305332  .00000561  00000+0  11192-3 0  9991
2 54641  98.0299 299.2083 0033526 242.8607 116.9180 14.65368098  2705
ONEWEB-0527             
1 54642U 22166A   22360.69319830  .00002642  00000+0  26297-3 0  9992
2 54642  86.5176 150.5006 0008801 168.8684 191.2740 14.91213983  2963
ONEWEB-0528             
1 54643U 22166B   22360.69340713  .00002671  00000+0  26604-3 0  9991
2 54643  86.5190 150.5036 0008749 169.5211 190.6200 14.91198145  2964
ONEWEB-0539             
1 54644U 22166C   22360.75723351  .00002959  00000+0  29291-3 0  9996
2 54644  86.5172 150.4667 0010121 167.6252 192.5226 14.91475245  2974
ONEWEB-0540             
1 54645U 22166D   22360.76183945  .00002944  00000+0  29432-3 0  9998
2 54645  86.5156 150.4666 0008540 172.0256 188.1109 14.91087957  2950
ONEWEB-0542             
1 54646U 22166E   22360.88036043  .00002895  00000+0  27967-3 0  9994
2 54646  86.5178 150.4033 0013394 177.1166 183.0142 14.92398191  2971
ONEWEB-0545             
1 54647U 22166F   22360.82827053  .00002876  00000+0  28704-3 0  9997
2 54647  86.5158 150.4375 0008673 170.4871 189.6522 14.91144829  2961
ONEWEB-0580             
1 54648U 22166G   22360.88352352  .00002954  00000+0  28744-3 0  9990
2 54648  86.5165 150.4039 0013057 174.6032 185.5339 14.92133236  2977
ONEWEB-0582             
1 54649U 22166H   22360.88938304  .00002961  00000+0  29179-3 0  9999
2 54649  86.5172 150.4052 0010937 167.7270 192.4226 14.91644253  3420
ONEWEB-0583             
1 54650U 22166J   22360.68630573  .00002397  00000+0  23470-3 0  9997
2 54650  86.5177 150.4961 0011529 168.4816 191.6678 14.91800036  2949
ONEWEB-0584             
1 54651U 22166K   22360.88839080  .00002989  00000+0  29397-3 0  9995
2 54651  86.5171 150.4048 0011249 168.1181 192.0315 14.91730317  2971
